[{"OBJECT_NAME":"HAWK-A","OBJECT_ID":"2018-099H","EPOCH":"2026-03-09T16:13:51.062880","MEAN_MOTION":15.23231043,"ECCENTRICITY":0.00342596,"INCLINATION":97.4051,"RA_OF_ASC_NODE":122.2425,"ARG_OF_PERICENTER":275.5523,"MEAN_ANOMALY":84.1807,"EPHEMERIS_TYPE":0,"CLASSIFICATION_TYPE":"U","NORAD_CAT_ID":43765,"ELEMENT_SET_NO":999,"REV_AT_EPOCH":39794,"BSTAR":0.00036104215,"MEAN_MOTION_DOT":8.617e-5,"MEAN_MOTION_DDOT":0},{"OBJECT_NAME":"STARLINK-35925","OBJECT_ID":"2025-283K","EPOCH":"2026-03-09T07:16:10.614432","MEAN_MOTION":15.3019028,"ECCENTRICITY":9.192e-5,"INCLINATION":53.1612,"RA_OF_ASC_NODE":26.0581,"ARG_OF_PERICENTER":75.3688,"MEAN_ANOMALY":284.7414,"EPHEMERIS_TYPE":0,"CLASSIFICATION_TYPE":"U","NORAD_CAT_ID":66887,"ELEMENT_SET_NO":999,"REV_AT_EPOCH":1578,"BSTAR":0.00053592951,"MEAN_MOTION_DOT":0.00015542,"MEAN_MOTION_DDOT":0}]
